*******************************************************************************
JPL/HORIZONS                      (2024 ON)                2025-Jan-25 12:06:04
Rec #:50662077 (+COV) Soln.date: 2025-Jan-09_16:23:09    # obs: 915 (2013-2024)
 
IAU76/J2000 helio. ecliptic osc. elements (au, days, deg., period=Julian yrs):
 
  EPOCH=  2460334.5 ! 2024-Jan-25.00 (TDB)         Residual RMS= .18456
   EC= .575111410281213    QR= 1.007038953908894   TP= 2460573.5501610111
   OM= 172.3515413598629   W=  185.3568890889452   IN= 7.741616104613852
   A= 2.370124729815418    MA= 295.4291784820231   ADIST= 3.733210505721942
   PER= 3.64893            N= .27011411            ANGMOM= .021665076
   DAN= 3.71127            DDN= 1.00865            L= 357.6598859
   B= -.7205729            MOID= .00433149         TP= 2024-Sep-20.0501610111
 
Asteroid physical parameters (km, seconds, rotational period in hours):
   GM= n.a.                RAD= n.a.               ROTPER= n.a.
   H= 20.48                G= .150                 B-V= n.a.
                           ALBEDO= n.a.            STYP= n.a.

ASTEROID comments: 
1: soln ref.= JPL#101, PHA  OCC=0       radar( 4 delay, 4 Dop.)
2: source=ORB
*******************************************************************************


*******************************************************************************
Ephemeris / WWW_USER Sat Jan 25 12:06:04 2025 Pasadena, USA      / Horizons    
*******************************************************************************
Target body name: (2024 ON)                       {source: JPL#101}
Center body name: Earth (399)                     {source: DE441}
Center-site name: Cerro Tololo Observatory, La Serena
*******************************************************************************
Start time      : A.D. 2024-Sep-05 00:00:00.0000 UT      
Stop  time      : A.D. 2024-Sep-06 23:00:00.0000 UT      
Step-size       : 60 minutes
*******************************************************************************
Target pole/equ : undefined
Target radii    : undefined                                                    
Center geodetic : 289.1941, -30.1691165, 2.38888  {E-lon(deg),Lat(deg),Alt(km)}
Center cylindric: 289.1941,5520.92438,-3187.79599 {E-lon(deg),Dxy(km),Dz(km)}
Center pole/equ : ITRF93                          {East-longitude positive}
Center radii    : 6378.137, 6378.137, 6356.752 km {Equator_a, b, pole_c}       
Target primary  : Sun
Vis. interferer : MOON (R_eq= 1737.400) km        {source: DE441}
Rel. light bend : Sun                             {source: DE441}
Rel. lght bnd GM: 1.3271E+11 km^3/s^2                                          
Small-body perts: Yes                             {source: SB441-N16}
Atmos refraction: NO (AIRLESS)
RA format       : DEG
Time format     : JD  
Calendar mode   : Gregorian
EOP file        : eop.250124.p250422                                           
EOP coverage    : DATA-BASED 1962-JAN-20 TO 2025-JAN-24. PREDICTS-> 2025-APR-21
Units conversion: 1 au= 149597870.700 km, c= 299792.458 km/s, 1 day= 86400.0 s 
Table cut-offs 1: Elevation (-90.0deg=NO ),Airmass (>38.000=NO), Daylight (NO )
Table cut-offs 2: Solar elongation (  0.0,180.0=NO ),Local Hour Angle( 0.0=NO )
Table cut-offs 3: RA/DEC angular rate (     0.0=NO )                           
Table format    : Comma Separated Values (spreadsheet)
*******************************************************************************
Initial IAU76/J2000 heliocentric ecliptic osculating elements (au, days, deg.):
  EPOCH=  2460334.5 ! 2024-Jan-25.00 (TDB)         Residual RMS= .18456        
   EC= .575111410281213    QR= 1.007038953908894   TP= 2460573.5501610111      
   OM= 172.3515413598629   W=  185.3568890889452   IN= 7.741616104613852       
  Equivalent ICRF heliocentric cartesian coordinates (au, au/d):
   X=-1.735596821437832E+00  Y=-1.796056492136574E+00  Z=-4.747340650010250E-01
  VX= 1.028212742539447E-02 VY=-1.370950877796925E-03 VZ=-5.786357533330505E-04
Asteroid physical parameters (km, seconds, rotational period in hours):        
   GM= n.a.                RAD= n.a.               ROTPER= n.a.                
   H= 20.48                G= .150                 B-V= n.a.                   
                           ALBEDO= n.a.            STYP= n.a.                  
*******************************************************************************
Date_________JDUT, , , R.A._(ICRF), DEC_(ICRF),             delta,     deldot,
******************************************************************************
$$SOE
2460558.500000000, ,m,   269.09732,    5.56963,  0.06327437026781, -8.5674318,
2460558.541666667, , ,   269.09347,    5.55039,  0.06306941404020, -8.4655089,
2460558.583333333, , ,   269.09038,    5.53081,  0.06286681463222, -8.3727131,
2460558.625000000, , ,   269.08862,    5.51092,  0.06266627351761, -8.2954545,
2460558.666666667, , ,   269.08863,    5.49074,  0.06246734994749, -8.2390737,
2460558.708333333, , ,   269.09079,    5.47034,  0.06226949128233, -8.2074750,
2460558.750000000, , ,   269.09529,    5.44975,  0.06207207097762, -8.2028606,
2460558.791666667, , ,   269.10218,    5.42904,  0.06187443158425, -8.2255822,
2460558.833333333, , ,   269.11137,    5.40827,  0.06167592979401, -8.2741203,
2460558.875000000, , ,   269.12258,    5.38748,  0.06147598043990, -8.3451911,
2460558.916666667,A, ,   269.13543,    5.36671,  0.06127409645357, -8.4339733,
2460558.958333333,*, ,   269.14940,    5.34600,  0.06106992207602, -8.5344390,
2460559.000000000,*, ,   269.16391,    5.32537,  0.06086325708837, -8.6397645,
2460559.041666667,*,m,   269.17835,    5.30481,  0.06065407044146, -8.7427956,
2460559.083333333,*,m,   269.19209,    5.28432,  0.06044250237663, -8.8365334,
2460559.125000000,*,m,   269.20458,    5.26387,  0.06022885489798, -8.9146109,
2460559.166666667,*,m,   269.21532,    5.24341,  0.06001357123282, -8.9717266,
2460559.208333333,*,m,   269.22396,    5.22290,  0.05979720565354, -9.0040072,
2460559.250000000,*,m,   269.23028,    5.20228,  0.05958038568532, -9.0092740,
2460559.291666667,*,m,   269.23423,    5.18150,  0.05936376924788, -8.9871950,
2460559.333333333,*,m,   269.23592,    5.16049,  0.05914799963925, -8.9393108,
2460559.375000000,*,m,   269.23563,    5.13920,  0.05893366143782, -8.8689329,
2460559.416666667,*,m,   269.23377,    5.11759,  0.05872124035752, -8.7809186,
2460559.458333333,N,m,   269.23087,    5.09563,  0.05851108983918, -8.6813394,
2460559.500000000, ,m,   269.22755,    5.07328,  0.05830340670800, -8.5770634,
2460559.541666667, ,m,   269.22446,    5.05056,  0.05809821760447, -8.4752831,
2460559.583333333, , ,   269.22225,    5.02746,  0.05789537714457, -8.3830188,
2460559.625000000, , ,   269.22150,    5.00402,  0.05769457794117, -8.3066349,
2460559.666666667, , ,   269.22271,    4.98027,  0.05749537178386, -8.2514020,
2460559.708333333, , ,   269.22627,    4.95625,  0.05729720049243, -8.2211356,
2460559.750000000, , ,   269.23238,    4.93202,  0.05709943428772, -8.2179363,
2460559.791666667, , ,   269.24111,    4.90764,  0.05690141501256, -8.2420488,
2460559.833333333, , ,   269.25232,    4.88315,  0.05670250121706, -8.2918485,
2460559.875000000, , ,   269.26572,    4.85861,  0.05650211201643, -8.3639564,
2460559.916666667,A, ,   269.28089,    4.83405,  0.05629976673659, -8.4534721,
2460559.958333333,*, ,   269.29726,    4.80951,  0.05609511766910, -8.5543098,
2460560.000000000,*, ,   269.31419,    4.78500,  0.05588797373749, -8.6596134,
2460560.041666667,*,m,   269.33102,    4.76052,  0.05567831349597, -8.7622230,
2460560.083333333,*,m,   269.34707,    4.73606,  0.05546628659765, -8.8551612,
2460560.125000000,*,m,   269.36174,    4.71158,  0.05525220363660, -8.9321074,
2460560.166666667,*,m,   269.37450,    4.68706,  0.05503651504140, -8.9878283,
2460560.208333333,*,m,   269.38496,    4.66243,  0.05481978042805, -9.0185360,
2460560.250000000,*,m,   269.39290,    4.63764,  0.05460263046466, -9.0221483,
2460560.291666667,*,m,   269.39827,    4.61264,  0.05438572381597, -8.9984347,
2460560.333333333,*,m,   269.40119,    4.58737,  0.05416970208685, -8.9490359,
2460560.375000000,*,m,   269.40198,    4.56177,  0.05395514584384, -8.8773550,
2460560.416666667,*,m,   269.40110,    4.53580,  0.05374253474329, -8.7883266,
2460560.458333333,N,m,   269.39912,    4.50944,  0.05353221453325, -8.6880800,
